<?xml version="1.0" encoding="UTF-8"?>
<kml xmlns="http://www.opengis.net/kml/2.2" xmlns:wpml="http://www.dji.com/wpmz/1.0.3">
  <Document>
    <wpml:createTime>1675066246838</wpml:createTime>
    <wpml:updateTime>1675066328791</wpml:updateTime>
    <wpml:missionConfig>
      <wpml:flyToWaylineMode>safely</wpml:flyToWaylineMode>
      <wpml:finishAction>goHome</wpml:finishAction>
      <wpml:exitOnRCLost>executeLostAction</wpml:exitOnRCLost>
      <wpml:executeRCLostAction>goBack</wpml:executeRCLostAction>
      <wpml:takeOffSecurityHeight>20</wpml:takeOffSecurityHeight>
      <wpml:globalTransitionalSpeed>15</wpml:globalTransitionalSpeed>
      <wpml:droneInfo>
        <wpml:droneEnumValue>77</wpml:droneEnumValue>
        <wpml:droneSubEnumValue>0</wpml:droneSubEnumValue>
      </wpml:droneInfo>
      <wpml:payloadInfo>
        <wpml:payloadEnumValue>66</wpml:payloadEnumValue>
        <wpml:payloadSubEnumValue>0</wpml:payloadSubEnumValue>
        <wpml:payloadPositionIndex>0</wpml:payloadPositionIndex>
      </wpml:payloadInfo>
    </wpml:missionConfig>
    <Folder>
      <wpml:templateType>waypoint</wpml:templateType>
      <wpml:templateId>0</wpml:templateId>
      <wpml:waylineCoordinateSysParam>
        <wpml:coordinateMode>WGS84</wpml:coordinateMode>
        <wpml:heightMode>relativeToStartPoint</wpml:heightMode>
        <wpml:positioningType>GPS</wpml:positioningType>
      </wpml:waylineCoordinateSysParam>
      <wpml:autoFlightSpeed>5</wpml:autoFlightSpeed>
      <wpml:globalHeight>100</wpml:globalHeight>
      <wpml:caliFlightEnable>0</wpml:caliFlightEnable>
      <wpml:gimbalPitchMode>manual</wpml:gimbalPitchMode>
      <wpml:globalWaypointHeadingParam>
        <wpml:waypointHeadingMode>followWayline</wpml:waypointHeadingMode>
        <wpml:waypointHeadingAngle>0</wpml:waypointHeadingAngle>
        <wpml:waypointPoiPoint>0.000000,0.000000,0.000000</wpml:waypointPoiPoint>
        <wpml:waypointHeadingPoiIndex>0</wpml:waypointHeadingPoiIndex>
      </wpml:globalWaypointHeadingParam>
      <wpml:globalWaypointTurnMode>toPointAndStopWithDiscontinuityCurvature</wpml:globalWaypointTurnMode>
      <wpml:globalUseStraightLine>1</wpml:globalUseStraightLine>
      <Placemark>
        <Point>
          <coordinates>
            113.943123779504,22.57749398646
          </coordinates>
        </Point>
        <wpml:index>0</wpml:index>
        <wpml:ellipsoidHeight>100</wpml:ellipsoidHeight>
        <wpml:height>100</wpml:height>
        <wpml:useGlobalHeight>1</wpml:useGlobalHeight>
        <wpml:useGlobalSpeed>1</wpml:useGlobalSpeed>
        <wpml:useGlobalHeadingParam>1</wpml:useGlobalHeadingParam>
        <wpml:useGlobalTurnParam>1</wpml:useGlobalTurnParam>
        <wpml:useStraightLine>0</wpml:useStraightLine>
        <wpml:actionGroup>
          <wpml:actionGroupId>0</wpml:actionGroupId>
          <wpml:actionGroupStartIndex>0</wpml:actionGroupStartIndex>
          <wpml:actionGroupEndIndex>0</wpml:actionGroupEndIndex>
          <wpml:actionGroupMode>sequence</wpml:actionGroupMode>
          <wpml:actionTrigger>
            <wpml:actionTriggerType>reachPoint</wpml:actionTriggerType>
          </wpml:actionTrigger>
          <wpml:action>
            <wpml:actionId>0</wpml:actionId>
            <wpml:actionActuatorFunc>takePhoto</wpml:actionActuatorFunc>
            <wpml:actionActuatorFuncParam>
              <wpml:fileSuffix>航点1</wpml:fileSuffix>
              <wpml:payloadPositionIndex>0</wpml:payloadPositionIndex>
              <wpml:useGlobalPayloadLensIndex>0</wpml:useGlobalPayloadLensIndex>
            </wpml:actionActuatorFuncParam>
          </wpml:action>
        </wpml:actionGroup>
      </Placemark>
      <Placemark>
        <Point>
          <coordinates>
            113.943106424418,22.5766334580621
          </coordinates>
        </Point>
        <wpml:index>1</wpml:index>
        <wpml:ellipsoidHeight>100</wpml:ellipsoidHeight>
        <wpml:height>100</wpml:height>
        <wpml:useGlobalHeight>1</wpml:useGlobalHeight>
        <wpml:useGlobalSpeed>1</wpml:useGlobalSpeed>
        <wpml:useGlobalHeadingParam>1</wpml:useGlobalHeadingParam>
        <wpml:useGlobalTurnParam>1</wpml:useGlobalTurnParam>
        <wpml:useStraightLine>0</wpml:useStraightLine>
        <wpml:actionGroup>
          <wpml:actionGroupId>1</wpml:actionGroupId>
          <wpml:actionGroupStartIndex>1</wpml:actionGroupStartIndex>
          <wpml:actionGroupEndIndex>1</wpml:actionGroupEndIndex>
          <wpml:actionGroupMode>sequence</wpml:actionGroupMode>
          <wpml:actionTrigger>
            <wpml:actionTriggerType>reachPoint</wpml:actionTriggerType>
          </wpml:actionTrigger>
          <wpml:action>
            <wpml:actionId>0</wpml:actionId>
            <wpml:actionActuatorFunc>startRecord</wpml:actionActuatorFunc>
            <wpml:actionActuatorFuncParam>
              <wpml:fileSuffix>航点2</wpml:fileSuffix>
              <wpml:payloadPositionIndex>0</wpml:payloadPositionIndex>
              <wpml:useGlobalPayloadLensIndex>0</wpml:useGlobalPayloadLensIndex>
            </wpml:actionActuatorFuncParam>
          </wpml:action>
          <wpml:action>
            <wpml:actionId>0</wpml:actionId>
            <wpml:actionActuatorFunc>stopRecord</wpml:actionActuatorFunc>
            <wpml:actionActuatorFuncParam>
              <wpml:payloadPositionIndex>0</wpml:payloadPositionIndex>
            </wpml:actionActuatorFuncParam>
          </wpml:action>
        </wpml:actionGroup>
      </Placemark>
      <Placemark>
        <Point>
          <coordinates>
            113.942306940875,22.5761013610415
          </coordinates>
        </Point>
        <wpml:index>2</wpml:index>
        <wpml:ellipsoidHeight>100</wpml:ellipsoidHeight>
        <wpml:height>100</wpml:height>
        <wpml:useGlobalHeight>1</wpml:useGlobalHeight>
        <wpml:useGlobalSpeed>1</wpml:useGlobalSpeed>
        <wpml:useGlobalHeadingParam>1</wpml:useGlobalHeadingParam>
        <wpml:useGlobalTurnParam>1</wpml:useGlobalTurnParam>
        <wpml:useStraightLine>0</wpml:useStraightLine>
        <wpml:actionGroup>
          <wpml:actionGroupId>2</wpml:actionGroupId>
          <wpml:actionGroupStartIndex>2</wpml:actionGroupStartIndex>
          <wpml:actionGroupEndIndex>2</wpml:actionGroupEndIndex>
          <wpml:actionGroupMode>sequence</wpml:actionGroupMode>
          <wpml:actionTrigger>
            <wpml:actionTriggerType>reachPoint</wpml:actionTriggerType>
          </wpml:actionTrigger>
          <wpml:action>
            <wpml:actionId>0</wpml:actionId>
            <wpml:actionActuatorFunc>gimbalRotate</wpml:actionActuatorFunc>
            <wpml:actionActuatorFuncParam>
              <wpml:gimbalRotateMode>absoluteAngle</wpml:gimbalRotateMode>
              <wpml:gimbalPitchRotateEnable>1</wpml:gimbalPitchRotateEnable>
              <wpml:gimbalPitchRotateAngle>0</wpml:gimbalPitchRotateAngle>
              <wpml:gimbalRollRotateEnable>0</wpml:gimbalRollRotateEnable>
              <wpml:gimbalRollRotateAngle>0</wpml:gimbalRollRotateAngle>
              <wpml:gimbalYawRotateEnable>0</wpml:gimbalYawRotateEnable>
              <wpml:gimbalYawRotateAngle>0</wpml:gimbalYawRotateAngle>
              <wpml:gimbalRotateTimeEnable>0</wpml:gimbalRotateTimeEnable>
              <wpml:gimbalRotateTime>0</wpml:gimbalRotateTime>
              <wpml:payloadPositionIndex>0</wpml:payloadPositionIndex>
            </wpml:actionActuatorFuncParam>
          </wpml:action>
        </wpml:actionGroup>
      </Placemark>
      <Placemark>
        <Point>
          <coordinates>
            113.941672128827,22.5761199329197
          </coordinates>
        </Point>
        <wpml:index>3</wpml:index>
        <wpml:ellipsoidHeight>100</wpml:ellipsoidHeight>
        <wpml:height>100</wpml:height>
        <wpml:useGlobalHeight>1</wpml:useGlobalHeight>
        <wpml:useGlobalSpeed>1</wpml:useGlobalSpeed>
        <wpml:useGlobalHeadingParam>1</wpml:useGlobalHeadingParam>
        <wpml:useGlobalTurnParam>1</wpml:useGlobalTurnParam>
        <wpml:useStraightLine>0</wpml:useStraightLine>
        <wpml:actionGroup>
          <wpml:actionGroupId>3</wpml:actionGroupId>
          <wpml:actionGroupStartIndex>3</wpml:actionGroupStartIndex>
          <wpml:actionGroupEndIndex>3</wpml:actionGroupEndIndex>
          <wpml:actionGroupMode>sequence</wpml:actionGroupMode>
          <wpml:actionTrigger>
            <wpml:actionTriggerType>reachPoint</wpml:actionTriggerType>
          </wpml:actionTrigger>
          <wpml:action>
            <wpml:actionId>0</wpml:actionId>
            <wpml:actionActuatorFunc>zoom</wpml:actionActuatorFunc>
            <wpml:actionActuatorFuncParam>
              <wpml:focalLength>48</wpml:focalLength>
              <wpml:isUseFocalFactor>0</wpml:isUseFocalFactor>
              <wpml:payloadPositionIndex>0</wpml:payloadPositionIndex>
            </wpml:actionActuatorFuncParam>
          </wpml:action>
        </wpml:actionGroup>
      </Placemark>
      <Placemark>
        <Point>
          <coordinates>
            113.94117119374,22.5767362967259
          </coordinates>
        </Point>
        <wpml:index>4</wpml:index>
        <wpml:ellipsoidHeight>100</wpml:ellipsoidHeight>
        <wpml:height>100</wpml:height>
        <wpml:useGlobalHeight>1</wpml:useGlobalHeight>
        <wpml:useGlobalSpeed>1</wpml:useGlobalSpeed>
        <wpml:useGlobalHeadingParam>1</wpml:useGlobalHeadingParam>
        <wpml:useGlobalTurnParam>1</wpml:useGlobalTurnParam>
        <wpml:useStraightLine>0</wpml:useStraightLine>
        <wpml:actionGroup>
          <wpml:actionGroupId>4</wpml:actionGroupId>
          <wpml:actionGroupStartIndex>4</wpml:actionGroupStartIndex>
          <wpml:actionGroupEndIndex>4</wpml:actionGroupEndIndex>
          <wpml:actionGroupMode>sequence</wpml:actionGroupMode>
          <wpml:actionTrigger>
            <wpml:actionTriggerType>reachPoint</wpml:actionTriggerType>
          </wpml:actionTrigger>
          <wpml:action>
            <wpml:actionId>0</wpml:actionId>
            <wpml:actionActuatorFunc>takePhoto</wpml:actionActuatorFunc>
            <wpml:actionActuatorFuncParam>
              <wpml:fileSuffix>航点5</wpml:fileSuffix>
              <wpml:payloadPositionIndex>0</wpml:payloadPositionIndex>
              <wpml:useGlobalPayloadLensIndex>0</wpml:useGlobalPayloadLensIndex>
            </wpml:actionActuatorFuncParam>
          </wpml:action>
          <wpml:action>
            <wpml:actionId>0</wpml:actionId>
            <wpml:actionActuatorFunc>startRecord</wpml:actionActuatorFunc>
            <wpml:actionActuatorFuncParam>
              <wpml:fileSuffix>航点5</wpml:fileSuffix>
              <wpml:payloadPositionIndex>0</wpml:payloadPositionIndex>
              <wpml:useGlobalPayloadLensIndex>0</wpml:useGlobalPayloadLensIndex>
            </wpml:actionActuatorFuncParam>
          </wpml:action>
          <wpml:action>
            <wpml:actionId>0</wpml:actionId>
            <wpml:actionActuatorFunc>stopRecord</wpml:actionActuatorFunc>
            <wpml:actionActuatorFuncParam>
              <wpml:payloadPositionIndex>0</wpml:payloadPositionIndex>
            </wpml:actionActuatorFuncParam>
          </wpml:action>
          <wpml:action>
            <wpml:actionId>0</wpml:actionId>
            <wpml:actionActuatorFunc>gimbalRotate</wpml:actionActuatorFunc>
            <wpml:actionActuatorFuncParam>
              <wpml:gimbalRotateMode>absoluteAngle</wpml:gimbalRotateMode>
              <wpml:gimbalPitchRotateEnable>1</wpml:gimbalPitchRotateEnable>
              <wpml:gimbalPitchRotateAngle>0</wpml:gimbalPitchRotateAngle>
              <wpml:gimbalRollRotateEnable>0</wpml:gimbalRollRotateEnable>
              <wpml:gimbalRollRotateAngle>0</wpml:gimbalRollRotateAngle>
              <wpml:gimbalYawRotateEnable>0</wpml:gimbalYawRotateEnable>
              <wpml:gimbalYawRotateAngle>0</wpml:gimbalYawRotateAngle>
              <wpml:gimbalRotateTimeEnable>0</wpml:gimbalRotateTimeEnable>
              <wpml:gimbalRotateTime>0</wpml:gimbalRotateTime>
              <wpml:payloadPositionIndex>0</wpml:payloadPositionIndex>
            </wpml:actionActuatorFuncParam>
          </wpml:action>
          <wpml:action>
            <wpml:actionId>0</wpml:actionId>
            <wpml:actionActuatorFunc>zoom</wpml:actionActuatorFunc>
            <wpml:actionActuatorFuncParam>
              <wpml:focalLength>48</wpml:focalLength>
              <wpml:isUseFocalFactor>0</wpml:isUseFocalFactor>
              <wpml:payloadPositionIndex>0</wpml:payloadPositionIndex>
            </wpml:actionActuatorFuncParam>
          </wpml:action>
        </wpml:actionGroup>
      </Placemark>
      <Placemark>
        <Point>
          <coordinates>
            113.94129303154,22.5773502201566
          </coordinates>
        </Point>
        <wpml:index>5</wpml:index>
        <wpml:ellipsoidHeight>100</wpml:ellipsoidHeight>
        <wpml:height>100</wpml:height>
        <wpml:useGlobalHeight>1</wpml:useGlobalHeight>
        <wpml:useGlobalSpeed>1</wpml:useGlobalSpeed>
        <wpml:useGlobalHeadingParam>1</wpml:useGlobalHeadingParam>
        <wpml:useGlobalTurnParam>1</wpml:useGlobalTurnParam>
        <wpml:useStraightLine>0</wpml:useStraightLine>
        <wpml:actionGroup>
          <wpml:actionGroupId>5</wpml:actionGroupId>
          <wpml:actionGroupStartIndex>5</wpml:actionGroupStartIndex>
          <wpml:actionGroupEndIndex>5</wpml:actionGroupEndIndex>
          <wpml:actionGroupMode>sequence</wpml:actionGroupMode>
          <wpml:actionTrigger>
            <wpml:actionTriggerType>reachPoint</wpml:actionTriggerType>
          </wpml:actionTrigger>
          <wpml:action>
            <wpml:actionId>0</wpml:actionId>
            <wpml:actionActuatorFunc>customDirName</wpml:actionActuatorFunc>
            <wpml:actionActuatorFuncParam>
              <wpml:payloadPositionIndex>0</wpml:payloadPositionIndex>
            </wpml:actionActuatorFuncParam>
          </wpml:action>
        </wpml:actionGroup>
      </Placemark>
      <Placemark>
        <Point>
          <coordinates>
            113.941550137047,22.5779651170957
          </coordinates>
        </Point>
        <wpml:index>6</wpml:index>
        <wpml:ellipsoidHeight>100</wpml:ellipsoidHeight>
        <wpml:height>100</wpml:height>
        <wpml:useGlobalHeight>1</wpml:useGlobalHeight>
        <wpml:useGlobalSpeed>1</wpml:useGlobalSpeed>
        <wpml:useGlobalHeadingParam>1</wpml:useGlobalHeadingParam>
        <wpml:useGlobalTurnParam>1</wpml:useGlobalTurnParam>
        <wpml:useStraightLine>0</wpml:useStraightLine>
      </Placemark>
      <Placemark>
        <Point>
          <coordinates>
            113.942209021541,22.5785334117507
          </coordinates>
        </Point>
        <wpml:index>7</wpml:index>
        <wpml:ellipsoidHeight>100</wpml:ellipsoidHeight>
        <wpml:height>100</wpml:height>
        <wpml:useGlobalHeight>1</wpml:useGlobalHeight>
        <wpml:useGlobalSpeed>1</wpml:useGlobalSpeed>
        <wpml:useGlobalHeadingParam>1</wpml:useGlobalHeadingParam>
        <wpml:useGlobalTurnParam>1</wpml:useGlobalTurnParam>
        <wpml:useStraightLine>0</wpml:useStraightLine>
        <wpml:actionGroup>
          <wpml:actionGroupId>6</wpml:actionGroupId>
          <wpml:actionGroupStartIndex>7</wpml:actionGroupStartIndex>
          <wpml:actionGroupEndIndex>7</wpml:actionGroupEndIndex>
          <wpml:actionGroupMode>sequence</wpml:actionGroupMode>
          <wpml:actionTrigger>
            <wpml:actionTriggerType>multipleDistance</wpml:actionTriggerType>
            <wpml:actionTriggerParam>10</wpml:actionTriggerParam>
          </wpml:actionTrigger>
          <wpml:action>
            <wpml:actionId>0</wpml:actionId>
            <wpml:actionActuatorFunc>takePhoto</wpml:actionActuatorFunc>
            <wpml:actionActuatorFuncParam>
              <wpml:payloadPositionIndex>0</wpml:payloadPositionIndex>
              <wpml:useGlobalPayloadLensIndex>0</wpml:useGlobalPayloadLensIndex>
            </wpml:actionActuatorFuncParam>
          </wpml:action>
        </wpml:actionGroup>
      </Placemark>
      <Placemark>
        <Point>
          <coordinates>
            113.942934892878,22.5784143523018
          </coordinates>
        </Point>
        <wpml:index>8</wpml:index>
        <wpml:ellipsoidHeight>100</wpml:ellipsoidHeight>
        <wpml:height>100</wpml:height>
        <wpml:useGlobalHeight>1</wpml:useGlobalHeight>
        <wpml:useGlobalSpeed>1</wpml:useGlobalSpeed>
        <wpml:useGlobalHeadingParam>1</wpml:useGlobalHeadingParam>
        <wpml:useGlobalTurnParam>1</wpml:useGlobalTurnParam>
        <wpml:useStraightLine>0</wpml:useStraightLine>
      </Placemark>
      <Placemark>
        <Point>
          <coordinates>
            113.94320410399,22.5779284392798
          </coordinates>
        </Point>
        <wpml:index>9</wpml:index>
        <wpml:ellipsoidHeight>100</wpml:ellipsoidHeight>
        <wpml:height>100</wpml:height>
        <wpml:useGlobalHeight>1</wpml:useGlobalHeight>
        <wpml:useGlobalSpeed>1</wpml:useGlobalSpeed>
        <wpml:useGlobalHeadingParam>1</wpml:useGlobalHeadingParam>
        <wpml:useGlobalTurnParam>1</wpml:useGlobalTurnParam>
        <wpml:useStraightLine>0</wpml:useStraightLine>
      </Placemark>
      <Placemark>
        <Point>
          <coordinates>
            113.942764197275,22.5774922189726
          </coordinates>
        </Point>
        <wpml:index>10</wpml:index>
        <wpml:ellipsoidHeight>100</wpml:ellipsoidHeight>
        <wpml:height>100</wpml:height>
        <wpml:useGlobalHeight>1</wpml:useGlobalHeight>
        <wpml:useGlobalSpeed>1</wpml:useGlobalSpeed>
        <wpml:useGlobalHeadingParam>1</wpml:useGlobalHeadingParam>
        <wpml:useGlobalTurnParam>1</wpml:useGlobalTurnParam>
        <wpml:useStraightLine>0</wpml:useStraightLine>
      </Placemark>
      <Placemark>
        <Point>
          <coordinates>
            113.942324290561,22.5770559986653
          </coordinates>
        </Point>
        <wpml:index>11</wpml:index>
        <wpml:ellipsoidHeight>100</wpml:ellipsoidHeight>
        <wpml:height>100</wpml:height>
        <wpml:useGlobalHeight>1</wpml:useGlobalHeight>
        <wpml:useGlobalSpeed>1</wpml:useGlobalSpeed>
        <wpml:useGlobalHeadingParam>1</wpml:useGlobalHeadingParam>
        <wpml:useGlobalTurnParam>1</wpml:useGlobalTurnParam>
        <wpml:useStraightLine>0</wpml:useStraightLine>
      </Placemark>
      <Placemark>
        <Point>
          <coordinates>
            113.941977451485,22.5766158692381
          </coordinates>
        </Point>
        <wpml:index>12</wpml:index>
        <wpml:ellipsoidHeight>100</wpml:ellipsoidHeight>
        <wpml:height>100</wpml:height>
        <wpml:useGlobalHeight>1</wpml:useGlobalHeight>
        <wpml:useGlobalSpeed>1</wpml:useGlobalSpeed>
        <wpml:useGlobalHeadingParam>1</wpml:useGlobalHeadingParam>
        <wpml:useGlobalTurnParam>1</wpml:useGlobalTurnParam>
        <wpml:useStraightLine>0</wpml:useStraightLine>
      </Placemark>
      <Placemark>
        <Point>
          <coordinates>
            113.941785877178,22.5775436683768
          </coordinates>
        </Point>
        <wpml:index>13</wpml:index>
        <wpml:ellipsoidHeight>100</wpml:ellipsoidHeight>
        <wpml:height>100</wpml:height>
        <wpml:useGlobalHeight>1</wpml:useGlobalHeight>
        <wpml:useGlobalSpeed>1</wpml:useGlobalSpeed>
        <wpml:useGlobalHeadingParam>1</wpml:useGlobalHeadingParam>
        <wpml:useGlobalTurnParam>1</wpml:useGlobalTurnParam>
        <wpml:useStraightLine>0</wpml:useStraightLine>
      </Placemark>
      <wpml:payloadParam>
        <wpml:payloadPositionIndex>0</wpml:payloadPositionIndex>
      </wpml:payloadParam>
    </Folder>
  </Document>
</kml>
